CSS (TIANHE)            
1 48274U 21035A   26192.17670403  .00001365  00000+0  21953-4 0  9992
2 48274  41.4681 176.1877 0002261 281.6943  78.3641 15.58018743296910
